{"type": "FeatureCollection", "features": [ {"type": "Feature", "properties": {"norad_id": 33980, "name": "COSMOS 2251 DEB", "group": "cosmos-2251-debris", "lat": -66.58170712333224, "lon": -73.69586112863773, "alt_km": 689.3270741993338, "timestamp": "2025-12-09T20:37:09.682854+00:00", "meta": {"OBJECT_NAME": "COSMOS 2251 DEB", "OBJECT_ID": "1993-036FP", "EPOCH": "2025-12-09T09:57:23.256000", "MEAN_MOTION": 14.58617406, "ECCENTRICITY": 0.00288721, "INCLINATION": 74.0216, "RA_OF_ASC_NODE": 65.7327, "ARG_OF_PERICENTER": 211.4817, "MEAN_ANOMALY": 228.9087, "EPHEMERIS_TYPE": 0, "CLASSIFICATION_TYPE": "U", "NORAD_CAT_ID": 33980, "ELEMENT_SET_NO": 999, "REV_AT_EPOCH": 88746, "BSTAR": 0.0012126938, "MEAN_MOTION_DOT": 5.654e-05, "MEAN_MOTION_DDOT": 0}, "tle": {"line1": "1 33980U 93036FP  25343.41485250  .00005654  00000+0  12127-2 0  9994", "line2": "2 33980  74.0216  65.7327 0028872 211.4817 228.9087 14.58617406887467"}}, "geometry": {"type": "Point", "coordinates": [-73.69586112863773, -66.58170712333224]}}, {"type": "Feature", "properties": {"norad_id": 33982, "name": "COSMOS 2251 DEB", "group": "cosmos-2251-debris", "lat": 73.99653485441817, "lon": 100.70069127636219, "alt_km": 644.7490522921289, "timestamp": "2025-12-09T20:37:09.682864+00:00", "meta": {"OBJECT_NAME": "COSMOS 2251 DEB", "OBJECT_ID": "1993-036FR", "EPOCH": "2025-12-09T12:40:30.842400", "MEAN_MOTION": 14.60193314, "ECCENTRICITY": 0.00749813, "INCLINATION": 74.0709, "RA_OF_ASC_NODE": 6.0543, "ARG_OF_PERICENTER": 51.474, "MEAN_ANOMALY": 100.1414, "EPHEMERIS_TYPE": 0, "CLASSIFICATION_TYPE": "U", "NORAD_CAT_ID": 33982, "ELEMENT_SET_NO": 999, "REV_AT_EPOCH": 89112, "BSTAR": 0.0006021789, "MEAN_MOTION_DOT": 2.989e-05, "MEAN_MOTION_DDOT": 0}, "tle": {"line1": "1 33982U 93036FR  25343.52813475  .00002989  00000+0  60218-3 0  9995", "line2": "2 33982  74.0709   6.0543 0074981  51.4740 100.1414 14.60193314891126"}}, "geometry": {"type": "Point", "coordinates": [100.70069127636219, 73.99653485441817]}}, {"type": "Feature", "properties": {"norad_id": 33983, "name": "COSMOS 2251 DEB", "group": "cosmos-2251-debris", "lat": 55.04101277206012, "lon": -51.69060435096369, "alt_km": 728.5102828234822, "timestamp": "2025-12-09T20:37:09.682874+00:00", "meta": {"OBJECT_NAME": "COSMOS 2251 DEB", "OBJECT_ID": "1993-036FS", "EPOCH": "2025-12-09T11:55:26.624352", "MEAN_MOTION": 14.50649612, "ECCENTRICITY": 0.00213884, "INCLINATION": 74.0493, "RA_OF_ASC_NODE": 153.1364, "ARG_OF_PERICENTER": 256.4263, "MEAN_ANOMALY": 133.9147, "EPHEMERIS_TYPE": 0, "CLASSIFICATION_TYPE": "U", "NORAD_CAT_ID": 33983, "ELEMENT_SET_NO": 999, "REV_AT_EPOCH": 88582, "BSTAR": 0.00089636767, "MEAN_MOTION_DOT": 3.503e-05, "MEAN_MOTION_DDOT": 0}, "tle": {"line1": "1 33983U 93036FS  25343.49683593  .00003503  00000+0  89637-3 0  9997", "line2": "2 33983  74.0493 153.1364 0021388 256.4263 133.9147 14.50649612885825"}}, "geometry": {"type": "Point", "coordinates": [-51.69060435096369, 55.04101277206012]}}, {"type": "Feature", "properties": {"norad_id": 33984, "name": "COSMOS 2251 DEB", "group": "cosmos-2251-debris", "lat": 60.36575511126311, "lon": 22.93429793530661, "alt_km": 676.4474491676556, "timestamp": "2025-12-09T20:37:09.682885+00:00", "meta": {"OBJECT_NAME": "COSMOS 2251 DEB", "OBJECT_ID": "1993-036FT", "EPOCH": "2025-12-09T11:04:20.798976", "MEAN_MOTION": 14.66318161, "ECCENTRICITY": 0.00233413, "INCLINATION": 74.0096, "RA_OF_ASC_NODE": 353.4318, "ARG_OF_PERICENTER": 192.4125, "MEAN_ANOMALY": 293.6081, "EPHEMERIS_TYPE": 0, "CLASSIFICATION_TYPE": "U", "NORAD_CAT_ID": 33984, "ELEMENT_SET_NO": 999, "REV_AT_EPOCH": 89018, "BSTAR": 0.0012650084, "MEAN_MOTION_DOT": 6.985e-05, "MEAN_MOTION_DDOT": 0}, "tle": {"line1": "1 33984U 93036FT  25343.46135184  .00006985  00000+0  12650-2 0  9990", "line2": "2 33984  74.0096 353.4318 0023341 192.4125 293.6081 14.66318161890181"}}, "geometry": {"type": "Point", "coordinates": [22.93429793530661, 60.36575511126311]}}, {"type": "Feature", "properties": {"norad_id": 33986, "name": "COSMOS 2251 DEB", "group": "cosmos-2251-debris", "lat": -46.083909293272264, "lon": -69.27024992166542, "alt_km": 744.4188584493368, "timestamp": "2025-12-09T20:37:09.682896+00:00", "meta": {"OBJECT_NAME": "COSMOS 2251 DEB", "OBJECT_ID": "1993-036FV", "EPOCH": "2025-12-08T23:28:28.723008", "MEAN_MOTION": 14.43172512, "ECCENTRICITY": 0.0040264, "INCLINATION": 74.037, "RA_OF_ASC_NODE": 309.6592, "ARG_OF_PERICENTER": 23.2183, "MEAN_ANOMALY": 33.2913, "EPHEMERIS_TYPE": 0, "CLASSIFICATION_TYPE": "U", "NORAD_CAT_ID": 33986, "ELEMENT_SET_NO": 999, "REV_AT_EPOCH": 87974, "BSTAR": 0.0010835, "MEAN_MOTION_DOT": 3.652e-05, "MEAN_MOTION_DDOT": 0}, "tle": {"line1": "1 33986U 93036FV  25342.97811022  .00003652  00000+0  10835-2 0  9990", "line2": "2 33986  74.0370 309.6592 0040264  23.2183  33.2913 14.43172512879747"}}, "geometry": {"type": "Point", "coordinates": [-69.27024992166542, -46.083909293272264]}}, {"type": "Feature", "properties": {"norad_id": 33990, "name": "COSMOS 2251 DEB", "group": "cosmos-2251-debris", "lat": -60.17178061512061, "lon": 140.80171919804783, "alt_km": 949.9414630583697, "timestamp": "2025-12-09T20:37:09.682906+00:00", "meta": {"OBJECT_NAME": "COSMOS 2251 DEB", "OBJECT_ID": "1993-036FZ", "EPOCH": "2025-12-09T15:00:17.544384", "MEAN_MOTION": 13.49978689, "ECCENTRICITY": 0.04075751, "INCLINATION": 73.929, "RA_OF_ASC_NODE": 290.9947, "ARG_OF_PERICENTER": 311.8639, "MEAN_ANOMALY": 240.3678, "EPHEMERIS_TYPE": 0, "CLASSIFICATION_TYPE": "U", "NORAD_CAT_ID": 33990, "ELEMENT_SET_NO": 999, "REV_AT_EPOCH": 82687, "BSTAR": 0.0024582019, "MEAN_MOTION_DOT": 2.596e-05, "MEAN_MOTION_DDOT": 0}, "tle": {"line1": "1 33990U 93036FZ  25343.62520306  .00002596  00000+0  24582-2 0  9990", "line2": "2 33990  73.9290 290.9947 0407575 311.8639 240.3678 13.49978689826870"}}, "geometry": {"type": "Point", "coordinates": [140.80171919804783, -60.17178061512061]}}, {"type": "Feature", "properties": {"norad_id": 33992, "name": "COSMOS 2251 DEB", "group": "cosmos-2251-debris", "lat": -65.44961290210276, "lon": -55.548029344368366, "alt_km": 716.3262143546472, "timestamp": "2025-12-09T20:37:09.682917+00:00", "meta": {"OBJECT_NAME": "COSMOS 2251 DEB", "OBJECT_ID": "1993-036GB", "EPOCH": "2025-12-09T11:49:56.339616", "MEAN_MOTION": 14.66172665, "ECCENTRICITY": 0.00516318, "INCLINATION": 74.0242, "RA_OF_ASC_NODE": 343.9985, "ARG_OF_PERICENTER": 102.9112, "MEAN_ANOMALY": 54.3806, "EPHEMERIS_TYPE": 0, "CLASSIFICATION_TYPE": "U", "NORAD_CAT_ID": 33992, "ELEMENT_SET_NO": 999, "REV_AT_EPOCH": 89077, "BSTAR": 0.0011108151, "MEAN_MOTION_DOT": 6.207e-05, "MEAN_MOTION_DDOT": 0}, "tle": {"line1": "1 33992U 93036GB  25343.49301319  .00006207  00000+0  11108-2 0  9991", "line2": "2 33992  74.0242 343.9985 0051631 102.9112  54.3806 14.66172665890771"}}, "geometry": {"type": "Point", "coordinates": [-55.548029344368366, -65.44961290210276]}}, {"type": "Feature", "properties": {"norad_id": 33994, "name": "COSMOS 2251 DEB", "group": "cosmos-2251-debris", "lat": 70.8683404248828, "lon": -39.83147661902373, "alt_km": 758.0902776287867, "timestamp": "2025-12-09T20:37:09.682927+00:00", "meta": {"OBJECT_NAME": "COSMOS 2251 DEB", "OBJECT_ID": "1993-036GD", "EPOCH": "2025-12-09T09:19:07.967424", "MEAN_MOTION": 14.41211887, "ECCENTRICITY": 0.00235428, "INCLINATION": 74.0421, "RA_OF_ASC_NODE": 196.6116, "ARG_OF_PERICENTER": 331.5388, "MEAN_ANOMALY": 206.9437, "EPHEMERIS_TYPE": 0, "CLASSIFICATION_TYPE": "U", "NORAD_CAT_ID": 33994, "ELEMENT_SET_NO": 999, "REV_AT_EPOCH": 88371, "BSTAR": 0.00015552159, "MEAN_MOTION_DOT": 4.77e-06, "MEAN_MOTION_DDOT": 0}, "tle": {"line1": "1 33994U 93036GD  25343.38828666  .00000477  00000+0  15552-3 0  9991", "line2": "2 33994  74.0421 196.6116 0023542 331.5388 206.9437 14.41211887883710"}}, "geometry": {"type": "Point", "coordinates": [-39.83147661902373, 70.8683404248828]}}, {"type": "Feature", "properties": {"norad_id": 33995, "name": "COSMOS 2251 DEB", "group": "cosmos-2251-debris", "lat": -59.83670064604618, "lon": -25.92403864950489, "alt_km": 793.0134592391314, "timestamp": "2025-12-09T20:37:09.682938+00:00", "meta": {"OBJECT_NAME": "COSMOS 2251 DEB", "OBJECT_ID": "1993-036GE", "EPOCH": "2025-12-09T11:07:25.075488", "MEAN_MOTION": 14.34744652, "ECCENTRICITY": 0.00603954, "INCLINATION": 74.0614, "RA_OF_ASC_NODE": 125.3453, "ARG_OF_PERICENTER": 140.6589, "MEAN_ANOMALY": 219.8974, "EPHEMERIS_TYPE": 0, "CLASSIFICATION_TYPE": "U", "NORAD_CAT_ID": 33995, "ELEMENT_SET_NO": 999, "REV_AT_EPOCH": 87472, "BSTAR": 0.0016759618, "MEAN_MOTION_DOT": 4.825e-05, "MEAN_MOTION_DDOT": 0}, "tle": {"line1": "1 33995U 93036GE  25343.46348467  .00004825  00000+0  16760-2 0  9999", "line2": "2 33995  74.0614 125.3453 0060395 140.6589 219.8974 14.34744652874720"}}, "geometry": {"type": "Point", "coordinates": [-25.92403864950489, -59.83670064604618]}}, {"type": "Feature", "properties": {"norad_id": 33999, "name": "COSMOS 2251 DEB", "group": "cosmos-2251-debris", "lat": -70.31143715682646, "lon": 110.24590985487173, "alt_km": 643.995789492913, "timestamp": "2025-12-09T20:37:09.682948+00:00", "meta": {"OBJECT_NAME": "COSMOS 2251 DEB", "OBJECT_ID": "1993-036GJ", "EPOCH": "2025-12-09T03:16:25.198464", "MEAN_MOTION": 14.83233851, "ECCENTRICITY": 0.00445867, "INCLINATION": 73.919, "RA_OF_ASC_NODE": 237.9626, "ARG_OF_PERICENTER": 134.6328, "MEAN_ANOMALY": 225.85, "EPHEMERIS_TYPE": 0, "CLASSIFICATION_TYPE": "U", "NORAD_CAT_ID": 33999, "ELEMENT_SET_NO": 999, "REV_AT_EPOCH": 89197, "BSTAR": 0.0016195783, "MEAN_MOTION_DOT": 0.00013462, "MEAN_MOTION_DDOT": 0}, "tle": {"line1": "1 33999U 93036GJ  25343.13640276  .00013462  00000+0  16196-2 0  9990", "line2": "2 33999  73.9190 237.9626 0044586 134.6328 225.8500 14.83233851891977"}}, "geometry": {"type": "Point", "coordinates": [110.24590985487173, -70.31143715682646]}}]}